satname,norad_id,inclination_deg,eccentricity,mean_motion_rev_per_day,perigee_km,apogee_km,l1,l2
STARLINK-1265,45406,53.1598,0.0001989,15.30636683,472.54865023913317,475.2743951414586,1 45406U 20019AY  26084.63670634  .00032421  00000+0  10872-2 0  9997,2 45406  53.1598  55.2600 0001989  96.5568 263.5660 15.30636683332418
STARLINK-1278,45408,53.0455,0.0003461,15.58396685,389.95357651388986,394.6400708066285,1 45408U 20019BA  26084.63201954  .00065763  00000+0  84843-3 0  9999,2 45408  53.0455  53.0361 0003461  88.5940 271.5467 15.58396685332445
STARLINK-1296,45412,53.1611,0.0002355,15.31185732,470.66015876711845,473.8867020798489,1 45412U 20019BE  26084.30061589  .00045982  00000+0  15083-2 0  9996,2 45412  53.1611  56.6922 0002355  98.3232 261.8036 15.31185732332366
STARLINK-1298,45413,53.0282,0.0002442,16.18076325,223.16758039694741,226.39244506596606,1 45413U 20019BF  26084.61619997  .01219438  11417-2  72907-3 0  9999,2 45413  53.0282 330.9457 0002442 230.1495 129.9327 16.18076325333670
STARLINK-1309,45414,53.0669,0.0006796,15.5766009,389.828445234667,399.0337197724057,1 45414U 20019BG  26084.61817580  .00103088  00000+0  13563-2 0  9995,2 45414  53.0669  46.4787 0006796  87.8156 272.3633 15.57660090332517
STARLINK-1316,45415,53.1601,0.0001232,15.31183057,471.43743738705507,473.12538048301667,1 45415U 20019BH  26084.60692947  .00027674  00000+0  91478-3 0  9991,2 45415  53.1601  55.3151 0001232 115.9165 244.1963 15.31183057332431
STARLINK-1286,45417,53.0496,0.0003769,15.52043371,408.20209029167563,413.31956147282654,1 45417U 20019BK  26084.64640721  .00040002  00000+0  65666-3 0  9990,2 45417  53.0496  53.9814 0003769  96.7915 263.3522 15.52043371332701
STARLINK-1308,45419,53.0529,0.0005732,15.53244019,403.3724670845868,411.15124833506616,1 45419U 20019BM  26084.26582913  .00068887  00000+0  10735-2 0  9995,2 45419  53.0529  77.1432 0005732  74.1205 286.0436 15.53244019332099
STARLINK-1329,45531,53.0464,0.0001169,15.64756974,373.1484715798242,374.7271066655212,1 45531U 20025A   26084.83335647 -.00056558  00000+0 -56919-3 0  9999,2 45531  53.0464   2.8230 0001169 112.4575  98.3837 15.64756974  5972
STARLINK-1338,45532,53.0511,0.0004984,15.57125896,392.60372406703664,399.35616383676734,1 45532U 20025B   26084.50120439  .00066362  00000+0  89751-3 0  9997,2 45532  53.0511   8.1480 0004984  69.0157 291.1387 15.57125896327866
STARLINK-1350,45535,53.0724,0.000234,15.36522426,454.80292326531617,458.0014876134619,1 45535U 20025E   26083.94817244  .00010226  00000+0  29304-3 0  9990,2 45535  53.0724 321.4628 0002340 100.6426 259.4840 15.36522426328505
STARLINK-1362,45538,53.1621,0.0001135,15.29776673,475.7013400509968,477.25733795995166,1 45538U 20025H   26084.13544989 -.00176034  00000+0 -61527-2 0  9992,2 45538  53.1621  29.2539 0001135  87.2173 272.8957 15.29776673327547
STARLINK-1368,45540,53.1595,0.0001207,15.30246127,474.2501629998678,475.90452894298596,1 45540U 20025K   26084.79822486 -.00029234  00000+0 -97734-3 0  9997,2 45540  53.1595  26.5031 0001207  64.5081 295.6044 15.30246127327631
STARLINK-1371,45542,53.0512,0.0001961,15.49550235,416.708104666026,419.37356561296747,1 45542U 20025M   26084.49709776  .00051411  00000+0  91843-3 0  9997,2 45542  53.0512  13.7552 0001961  89.9607 270.1626 15.49550235327787
STARLINK-1372,45543,53.1623,0.0001316,15.30197838,474.3196227873623,476.12342675108175,1 45543U 20025N   26084.12188551  .00002019  00000+0  80294-4 0  9999,2 45543  53.1623  29.3440 0001316  87.1280 272.9872 15.30197838326634
STARLINK-1373,45544,53.0501,0.0004827,15.53465994,403.3404644946859,409.8904645239227,1 45544U 20025P   26084.79402977  .00118486  00000+0  18153-2 0  9993,2 45544  53.0501  11.4381 0004827  77.1394 283.0155 15.53465994327847
STARLINK-1327,45555,53.0473,0.0006672,15.56895482,392.12815131609204,401.1684248044803,1 45555U 20025AA  26084.45769240  .00107475  00000+0  14538-2 0  9996,2 45555  53.0473 350.3257 0006672 121.4182 238.7482 15.56895482328104
STARLINK-1356,45564,53.0512,0.0005613,15.47194472,421.11910720977994,428.7562388377164,1 45564U 20025AK  26084.76227134  .00061800  00000+0  11947-2 0  9993,2 45564  53.0512 357.1840 0005613  97.1080 263.0565 15.47194472328037
STARLINK-1357,45565,53.0519,0.0004303,15.58702302,388.498865429151,394.32473912839305,1 45565U 20025AL  26084.37436371  .00091674  00000+0  11628-2 0  9994,2 45565  53.0519 321.9325 0004303 168.1588 191.9526 15.58702302328506
STARLINK-1361,45567,53.0504,0.0007433,15.50352257,410.64692874907814,420.74664205445606,1 45567U 20025AN  26084.81897513  .00094772  00000+0  16288-2 0  9993,2 45567  53.0504 356.6210 0007433  88.1679 272.0181 15.50352257328059
STARLINK-1363,45568,53.0407,0.0006211,15.80724544,324.2250830527573,332.55593152231086,1 45568U 20025AP  26084.83335647  .00108684  00000+0  55036-3 0  9994,2 45568  53.0407 316.8514 0006211 119.7994 200.6502 15.80724544  5805
STARLINK-1366,45569,53.0413,0.0006593,15.79380279,327.77128334646295,336.6195276563567,1 45569U 20025AQ  26084.35994316  .00107754  00000+0  58016-3 0  9994,2 45569  53.0413 320.1276 0006593 115.6997 244.4705 15.79380279328515
STARLINK-1376,45570,53.1611,0.0001549,15.31361151,470.68922517425835,472.811320251345,1 45570U 20025AR  26084.78205485  .00051938  00000+0  16916-2 0  9999,2 45570  53.1611   3.0064 0001549 139.1441 220.9676 15.31361151327961
STARLINK-1320,45572,53.0464,0.0005362,15.7118317,351.903812134894,359.1249798919789,1 45572U 20025AT  26084.78508493  .00086220  00000+0  66646-3 0  9994,2 45572  53.0464 266.1548 0005362  99.0609 261.1015 15.71183170329338
STARLINK-1321,45573,53.0494,0.0004401,15.50880435,411.16490878765853,417.1434834985039,1 45573U 20025AU  26084.42912645  .00034668  00000+0  59456-3 0  9994,2 45573  53.0494 342.9873 0004401 120.3595 239.7849 15.50880435327903
STARLINK-1331,45578,53.0526,0.000526,15.5089928,410.52645765059697,417.67189010551647,1 45578U 20025AZ  26084.82414750  .00072644  00000+0  12304-2 0  9993,2 45578  53.0526 347.7825 0005260 140.8046 219.3344 15.50899280328189
STARLINK-1333,45580,53.1626,0.0001358,15.30184705,474.3300464999711,476.1914293255877,1 45580U 20025BB  26084.76080754  .00000963  00000+0  44644-4 0  9991,2 45580  53.1626   3.1610 0001358  87.9242 272.1915 15.30184705327965
STARLINK-1335,45581,53.1579,0.0001585,15.29356589,476.6478442522348,478.82115551769675,1 45581U 20025BC  26084.06040356  .00002025  00000+0  82509-4 0  9992,2 45581  53.1579   3.7422 0001585 107.2011 252.9163 15.29356589327883
STARLINK-1337,45582,53.053,0.0005047,15.60890309,381.6706984545117,388.497493828957,1 45582U 20025BD  26084.83563559  .00083794  00000+0  97923-3 0  9990,2 45582  53.0530 343.1877 0005047 144.0796 216.0557 15.60890309328237
STARLINK-1347,45586,53.0444,0.0004536,15.57179023,392.75319639031477,398.89853550230055,1 45586U 20025BH  26084.87011689  .00090466  00000+0  12151-2 0  9993,2 45586  53.0444 311.1586 0004536 128.0469 232.0952 15.57179023328683
STARLINK-1364,45589,53.0517,0.0007706,15.5222257,405.0071898347969,415.4694338654208,1 45589U 20025BL  26084.73316129  .00071974  00000+0  11622-2 0  9993,2 45589  53.0517 346.1070 0007706 118.8529 241.3255 15.52222570328184
STARLINK-1365,45590,53.0524,0.000442,15.47493554,421.05452582636826,427.0676689444572,1 45590U 20025BM  26084.11357617  .00045990  00000+0  88399-3 0  9999,2 45590  53.0524  19.9183 0004420  99.5446 260.6060 15.47493554327674
STARLINK-1443,45660,53.1361,0.0003656,15.26481095,483.83193342969116,488.8512401723601,1 45660U 20035D   26084.76278659  .00040077  00000+0  15208-2 0  9996,2 45660  53.1361 350.7073 0003656 119.0505 241.0860 15.26481095321219
STARLINK-1446,45663,53.0242,0.000117,15.43545002,434.85943989373027,436.4538676087077,1 45663U 20035G   26084.80732372  .00019320  00000+0  43182-3 0  9991,2 45663  53.0242 282.7759 0001170 358.5551   1.5450 15.43545002322161
STARLINK-1448,45665,53.05,0.0007523,15.55487423,395.6363746202651,405.8358671179258,1 45665U 20035J   26084.85763836  .00077825  00000+0  11148-2 0  9997,2 45665  53.0500 334.6832 0007523 141.6484 218.5063 15.55487423321437
STARLINK-1451,45668,53.0532,0.0002163,15.10825737,532.1854081515821,535.1754603736435,1 45668U 20035M   26084.16379982  .00021168  00000+0  12729-2 0  9994,2 45668  53.0532 356.1529 0002163  81.5572 278.5664 15.10825737321081
STARLINK-1452,45669,53.0307,0.0006094,15.47414049,420.1486885200584,428.4394915325829,1 45669U 20035N   26084.32144030  .00065897  00000+0  12629-2 0  9993,2 45669  53.0307 307.1062 0006094 114.5595 245.6047 15.47414049321786
STARLINK-1453,45670,53.0466,0.0004353,15.55769812,396.96531727819547,402.86629004906536,1 45670U 20035P   26084.84609842  .00089947  00000+0  12731-2 0  9995,2 45670  53.0466 295.2974 0004353 114.8045 245.3419 15.55769812321883
STARLINK-1454,45671,53.0487,0.0007355,15.54124308,399.7105769859918,409.6881292614362,1 45671U 20035Q   26084.71404091  .00100960  00000+0  15137-2 0  9993,2 45671  53.0487 335.6551 0007355 125.9603 234.2089 15.54124308321407
STARLINK-1456,45673,53.0489,0.0002363,15.52365128,408.2187137074843,411.42670346576233,1 45673U 20035S   26084.40418676  .00080260  00000+0  12885-2 0  9992,2 45673  53.0489 330.7873 0002363 171.0434 189.0617 15.52365128321467
STARLINK-1457,45674,53.047,0.0006135,15.83316358,316.95970020138066,325.17962677748346,1 45674U 20035T   26084.83335647  .00123123  00000+0  55132-3 0  9995,2 45674  53.0470 301.3128 0006135 137.5003 119.7995 15.83316358  6043
STARLINK-1458,45675,53.0517,0.000665,15.44893106,427.1636407125525,436.2207135181161,1 45675U 20035U   26084.73095110  .00079057  00000+0  16473-2 0  9993,2 45675  53.0517 339.2216 0006650 135.1918 224.9626 15.44893106321335
STARLINK-1460,45676,53.1613,0.0001619,15.30190194,474.1347860838132,476.3539109644653,1 45676U 20035V   26084.47053107  .00001792  00000+0  72633-4 0  9998,2 45676  53.1613 351.6461 0001619  93.3623 266.7563 15.30190194321136
